{"type": "FeatureCollection", "features": [{"type": "Feature", "properties": {"norad_id": 50032, "name": "COSMOS 1408 DEB", "group": "cosmos-1408-debris", "lat": 66.64690685317649, "lon": -143.27475442590367, "alt_km": 421.1350486056099, "timestamp": "2025-12-16T19:34:24.537745+00:00", "meta": {"OBJECT_NAME": "COSMOS 1408 DEB", "OBJECT_ID": "1982-092RU", "EPOCH": "2025-12-15T04:14:48.950880", "MEAN_MOTION": 15.45720656, "ECCENTRICITY": 0.00154709, "INCLINATION": 82.5645, "RA_OF_ASC_NODE": 56.0111, "ARG_OF_PERICENTER": 199.3332, "MEAN_ANOMALY": 160.7333, "EPHEMERIS_TYPE": 0, "CLASSIFICATION_TYPE": "U", "NORAD_CAT_ID": 50032, "ELEMENT_SET_NO": 999, "REV_AT_EPOCH": 22641, "BSTAR": 8.3312552e-05, "MEAN_MOTION_DOT": 4.083e-05, "MEAN_MOTION_DDOT": 0}, "tle": {"line1": "1 50032U 82092RU  25349.17695545  .00004083  00000+0  83313-4 0  9992", "line2": "2 50032  82.5645  56.0111 0015470 199.3332 160.7333 15.45720656226412"}}, "geometry": {"type": "Point", "coordinates": [-143.27475442590367, 66.64690685317649]}}, {"type": "Feature", "properties": {"norad_id": 50058, "name": "COSMOS 1408 DEB", "group": "cosmos-1408-debris", "lat": -45.12164984594422, "lon": -107.43837376704262, "alt_km": 390.4362438798935, "timestamp": "2025-12-16T19:34:24.537766+00:00", "meta": {"OBJECT_NAME": "COSMOS 1408 DEB", "OBJECT_ID": "1982-092SW", "EPOCH": "2025-12-15T22:39:20.359296", "MEAN_MOTION": 15.64302604, "ECCENTRICITY": 0.00162647, "INCLINATION": 82.6133, "RA_OF_ASC_NODE": 65.9879, "ARG_OF_PERICENTER": 88.0199, "MEAN_ANOMALY": 272.2922, "EPHEMERIS_TYPE": 0, "CLASSIFICATION_TYPE": "U", "NORAD_CAT_ID": 50058, "ELEMENT_SET_NO": 999, "REV_AT_EPOCH": 22854, "BSTAR": 0.00026335604, "MEAN_MOTION_DOT": 0.00025363, "MEAN_MOTION_DDOT": 0}, "tle": {"line1": "1 50058U 82092SW  25349.94398564  .00025363  00000+0  26336-3 0  9991", "line2": "2 50058  82.6133  65.9879 0016264  88.0199 272.2922 15.64302604228549"}}, "geometry": {"type": "Point", "coordinates": [-107.43837376704262, -45.12164984594422]}}, {"type": "Feature", "properties": {"norad_id": 50404, "name": "COSMOS 1408 DEB", "group": "cosmos-1408-debris", "lat": -36.67842210672927, "lon": -154.9980301033642, "alt_km": 615.867400544772, "timestamp": "2025-12-16T19:34:24.537779+00:00", "meta": {"OBJECT_NAME": "COSMOS 1408 DEB", "OBJECT_ID": "1982-092ADS", "EPOCH": "2025-12-15T21:32:23.313984", "MEAN_MOTION": 15.1429436, "ECCENTRICITY": 0.01706647, "INCLINATION": 82.2037, "RA_OF_ASC_NODE": 211.7997, "ARG_OF_PERICENTER": 188.0391, "MEAN_ANOMALY": 171.8103, "EPHEMERIS_TYPE": 0, "CLASSIFICATION_TYPE": "U", "NORAD_CAT_ID": 50404, "ELEMENT_SET_NO": 999, "REV_AT_EPOCH": 21241, "BSTAR": 0.0024072217, "MEAN_MOTION_DOT": 0.00064013, "MEAN_MOTION_DDOT": 0}, "tle": {"line1": "1 50404U 82092ADS 25349.89749206  .00064013  00000+0  24072-2 0  9992", "line2": "2 50404  82.2037 211.7997 0170664 188.0391 171.8103 15.14294360212413"}}, "geometry": {"type": "Point", "coordinates": [-154.9980301033642, -36.67842210672927]}}, {"type": "Feature", "properties": {"norad_id": 50621, "name": "COSMOS 1408 DEB", "group": "cosmos-1408-debris", "lat": 46.97921621596043, "lon": -118.10140474505619, "alt_km": 373.1162041447833, "timestamp": "2025-12-16T19:34:24.537790+00:00", "meta": {"OBJECT_NAME": "COSMOS 1408 DEB", "OBJECT_ID": "1982-092ALR", "EPOCH": "2025-12-15T18:19:33.175488", "MEAN_MOTION": 15.56826733, "ECCENTRICITY": 0.00289654, "INCLINATION": 82.5705, "RA_OF_ASC_NODE": 71.0324, "ARG_OF_PERICENTER": 141.324, "MEAN_ANOMALY": 219.0098, "EPHEMERIS_TYPE": 0, "CLASSIFICATION_TYPE": "U", "NORAD_CAT_ID": 50621, "ELEMENT_SET_NO": 999, "REV_AT_EPOCH": 22297, "BSTAR": 0.0002778382, "MEAN_MOTION_DOT": 0.00020366, "MEAN_MOTION_DDOT": 0}, "tle": {"line1": "1 50621U 82092ALR 25349.76357842  .00020366  00000+0  27784-3 0  9997", "line2": "2 50621  82.5705  71.0324 0028965 141.3240 219.0098 15.56826733222972"}}, "geometry": {"type": "Point", "coordinates": [-118.10140474505619, 46.97921621596043]}}]}